start=new Date('2021-09-25T00:00:00.000Z').valueOf();
sats=[{"NORAD_CAT_ID":"45746","EPHEMERIS_TYPE":"0","MEAN_ANOMALY":"263.8291","FILE":"3126800","COUNTRY_CODE":"US","ARG_OF_PERICENTER":"96.2793","CLASSIFICATION_TYPE":"U","OBJECT_TYPE":"PAYLOAD","APOAPSIS":"547.776","LAUNCH_DATE":"2020-06-13","MEAN_MOTION_DOT":"0.00002033","RA_OF_ASC_NODE":"341.2624","REF_FRAME":"TEME","MEAN_ELEMENT_THEORY":"SGP4","ELEMENT_SET_NO":"999","DECAY_DATE":null,"MEAN_MOTION":"15.06405229","OBJECT_NAME":"STARLINK-1504","CENTER_NAME":"EARTH","EPOCH":"2021-09-24T12:34:34.889952","PERIOD":"95.592","TLE_LINE1":"1 45746U 20038S   21267.52401493  .00002033  00000-0  15533-3 0  9993","REV_AT_EPOCH":"7093","TLE_LINE2":"2 45746  53.0545 341.2624 0000836  96.2793 263.8291 15.06405229 70939","PERIAPSIS":"546.619","SEMIMAJOR_AXIS":"6925.333","ECCENTRICITY":"0.00008360","SITE":"AFETR","TIME_SYSTEM":"UTC","RCS_SIZE":"LARGE","BSTAR":"0.00015533000000","GP_ID":"185427475","OBJECT_ID":"2020-038S","INCLINATION":"53.0545","MEAN_MOTION_DDOT":"0.0000000000000"},{"COUNTRY_CODE":"US","FILE":"3126318","MEAN_ANOMALY":"237.6130","EPHEMERIS_TYPE":"0","NORAD_CAT_ID":"45747","APOAPSIS":"547.765","OBJECT_TYPE":"PAYLOAD","CLASSIFICATION_TYPE":"U","ARG_OF_PERICENTER":"122.4936","REF_FRAME":"TEME","RA_OF_ASC_NODE":"340.6413","MEAN_MOTION_DOT":"0.00002609","LAUNCH_DATE":"2020-06-13","OBJECT_NAME":"STARLINK-1506","MEAN_MOTION":"15.06400819","MEAN_ELEMENT_THEORY":"SGP4","ELEMENT_SET_NO":"999","DECAY_DATE":null,"PERIOD":"95.592","TLE_LINE1":"1 45747U 20038T   21267.66038119  .00002609  00000-0  19394-3 0  9998","CENTER_NAME":"EARTH","EPOCH":"2021-09-24T15:50:56.934816","REV_AT_EPOCH":"7188","ECCENTRICITY":"0.00008000","PERIAPSIS":"546.657","SEMIMAJOR_AXIS":"6925.346","TLE_LINE2":"2 45747  53.0556 340.6413 0000800 122.4936 237.6130 15.06400819 71889","OBJECT_ID":"2020-038T","MEAN_MOTION_DDOT":"0.0000000000000","INCLINATION":"53.0556","BSTAR":"0.00019394000000","GP_ID":"185396451","SITE":"AFETR","RCS_SIZE":"LARGE","TIME_SYSTEM":"UTC"},{"TLE_LINE2":"2 45748  53.0545 340.4191 0001259 102.5265 257.5865 15.06389221 70969","PERIAPSIS":"546.375","SEMIMAJOR_AXIS":"6925.382","ECCENTRICITY":"0.00012590","RCS_SIZE":"LARGE","SITE":"AFETR","TIME_SYSTEM":"UTC","BSTAR":"-0.00009800100000","GP_ID":"185427977","OBJECT_ID":"2020-038U","INCLINATION":"53.0545","MEAN_MOTION_DDOT":"0.0000000000000","EPOCH":"2021-09-24T17:05:16.260000","CENTER_NAME":"EARTH","PERIOD":"95.593","TLE_LINE1":"1 45748U 20038U   21267.71199375 -.00001740  00000-0 -98001-4 0  9997","REV_AT_EPOCH":"7096","LAUNCH_DATE":"2020-06-13","MEAN_MOTION_DOT":"-0.00001740","RA_OF_ASC_NODE":"340.4191","REF_FRAME":"TEME","MEAN_ELEMENT_THEORY":"SGP4","DECAY_DATE":null,"ELEMENT_SET_NO":"999","MEAN_MOTION":"15.06389221","OBJECT_NAME":"STARLINK-1507","NORAD_CAT_ID":"45748","EPHEMERIS_TYPE":"0","COUNTRY_CODE":"US","FILE":"3126800","MEAN_ANOMALY":"257.5865","ARG_OF_PERICENTER":"102.5265","CLASSIFICATION_TYPE":"U","OBJECT_TYPE":"PAYLOAD","APOAPSIS":"548.118"},{"RA_OF_ASC_NODE":"321.1638","REF_FRAME":"TEME","LAUNCH_DATE":"2020-06-13","MEAN_MOTION_DOT":"0.00002035","OBJECT_NAME":"STARLINK-1391","ELEMENT_SET_NO":"999","DECAY_DATE":null,"MEAN_ELEMENT_THEORY":"SGP4","MEAN_MOTION":"15.06396000","FILE":"3126002","MEAN_ANOMALY":"251.5804","COUNTRY_CODE":"US","EPHEMERIS_TYPE":"0","NORAD_CAT_ID":"45750","APOAPSIS":"547.922","ARG_OF_PERICENTER":"108.5294","CLASSIFICATION_TYPE":"U","OBJECT_TYPE":"PAYLOAD","SEMIMAJOR_AXIS":"6925.361","PERIAPSIS":"546.530","ECCENTRICITY":"0.00010050","TLE_LINE2":"2 45750  53.0570 321.1638 0001005 108.5294 251.5804 15.06396000 71230","MEAN_MOTION_DDOT":"0.0000000000000","INCLINATION":"53.0570","OBJECT_ID":"2020-038W","SITE":"AFETR","RCS_SIZE":"LARGE","TIME_SYSTEM":"UTC","GP_ID":"185384961","BSTAR":"0.00015547000000","TLE_LINE1":"1 45750U 20038W   21267.54427979  .00002035  00000-0  15547-3 0  9994","PERIOD":"95.592","CENTER_NAME":"EARTH","EPOCH":"2021-09-24T13:03:45.773856","REV_AT_EPOCH":"7123"},{"ARG_OF_PERICENTER":"119.6894","CLASSIFICATION_TYPE":"U","OBJECT_TYPE":"PAYLOAD","APOAPSIS":"547.817","NORAD_CAT_ID":"45751","EPHEMERIS_TYPE":"0","FILE":"3126002","COUNTRY_CODE":"US","MEAN_ANOMALY":"240.4177","MEAN_ELEMENT_THEORY":"SGP4","DECAY_DATE":null,"ELEMENT_SET_NO":"999","MEAN_MOTION":"15.06388987","OBJECT_NAME":"STARLINK-1464","LAUNCH_DATE":"2020-06-13","MEAN_MOTION_DOT":"0.00000198","RA_OF_ASC_NODE":"321.1858","REF_FRAME":"TEME","REV_AT_EPOCH":"7123","EPOCH":"2021-09-24T12:58:28.818912","CENTER_NAME":"EARTH","PERIOD":"95.593","TLE_LINE1":"1 45751U 20038X   21267.54061133  .00000198  00000-0  32155-4 0  9994","TIME_SYSTEM":"UTC","SITE":"AFETR","RCS_SIZE":"LARGE","BSTAR":"0.00003215500000","GP_ID":"185386213","OBJECT_ID":"2020-038X","MEAN_MOTION_DDOT":"0.0000000000000","INCLINATION":"53.0539","TLE_LINE2":"2 45751  53.0539 321.1858 0000822 119.6894 240.4177 15.06388987 71230","PERIAPSIS":"546.678","SEMIMAJOR_AXIS":"6925.382","ECCENTRICITY":"0.00008220"},{"ARG_OF_PERICENTER":"287.9329","OBJECT_TYPE":"PAYLOAD","CLASSIFICATION_TYPE":"U","APOAPSIS":"375.571","NORAD_CAT_ID":"45752","EPHEMERIS_TYPE":"0","COUNTRY_CODE":"US","FILE":"3126800","MEAN_ANOMALY":"72.0752","MEAN_ELEMENT_THEORY":"SGP4","DECAY_DATE":null,"ELEMENT_SET_NO":"999","MEAN_MOTION":"15.66199520","OBJECT_NAME":"STARLINK-1469","LAUNCH_DATE":"2020-06-13","MEAN_MOTION_DOT":"0.00025758","RA_OF_ASC_NODE":"139.5010","REF_FRAME":"TEME","REV_AT_EPOCH":"7378","EPOCH":"2021-09-24T22:02:35.484000","CENTER_NAME":"EARTH","PERIOD":"91.942","TLE_LINE1":"1 45752U 20038Y   21267.91846625  .00025758  00000-0  24955-3 0  9990","SITE":"AFETR","RCS_SIZE":"LARGE","TIME_SYSTEM":"UTC","BSTAR":"0.00024955000000","GP_ID":"185427725","OBJECT_ID":"2020-038Y","MEAN_MOTION_DDOT":"0.0000000000000","INCLINATION":"52.9955","TLE_LINE2":"2 45752  52.9955 139.5010 0008563 287.9329  72.0752 15.66199520 73783","PERIAPSIS":"364.015","SEMIMAJOR_AXIS":"6747.928","ECCENTRICITY":"0.00085630"},{"OBJECT_NAME":"STARLINK-1476","ELEMENT_SET_NO":"999","DECAY_DATE":null,"MEAN_ELEMENT_THEORY":"SGP4","MEAN_MOTION":"15.06400884","RA_OF_ASC_NODE":"320.8344","REF_FRAME":"TEME","LAUNCH_DATE":"2020-06-13","MEAN_MOTION_DOT":"0.00000327","APOAPSIS":"547.926","ARG_OF_PERICENTER":"94.5177","CLASSIFICATION_TYPE":"U","OBJECT_TYPE":"PAYLOAD","FILE":"3126800","COUNTRY_CODE":"US","MEAN_ANOMALY":"265.5930","EPHEMERIS_TYPE":"0","NORAD_CAT_ID":"45753","INCLINATION":"53.0546","MEAN_MOTION_DDOT":"0.0000000000000","OBJECT_ID":"2020-038Z","SITE":"AFETR","RCS_SIZE":"LARGE","TIME_SYSTEM":"UTC","GP_ID":"185428477","BSTAR":"0.00004083200000","PERIAPSIS":"546.496","SEMIMAJOR_AXIS":"6925.346","ECCENTRICITY":"0.00010320","TLE_LINE2":"2 45753  53.0546 320.8344 0001032  94.5177 265.5930 15.06400884 71242","REV_AT_EPOCH":"7124","TLE_LINE1":"1 45753U 20038Z   21267.61799385  .00000327  00000-0  40832-4 0  9996","PERIOD":"95.592","EPOCH":"2021-09-24T14:49:54.668640","CENTER_NAME":"EARTH"},{"NORAD_CAT_ID":"45754","EPHEMERIS_TYPE":"0","COUNTRY_CODE":"US","FILE":"3126800","MEAN_ANOMALY":"262.6775","CLASSIFICATION_TYPE":"U","OBJECT_TYPE":"PAYLOAD","ARG_OF_PERICENTER":"97.4313","APOAPSIS":"547.810","MEAN_MOTION_DOT":"0.00001564","LAUNCH_DATE":"2020-06-13","REF_FRAME":"TEME","RA_OF_ASC_NODE":"320.8242","MEAN_MOTION":"15.06403391","ELEMENT_SET_NO":"999","DECAY_DATE":null,"MEAN_ELEMENT_THEORY":"SGP4","OBJECT_NAME":"STARLINK-1477","EPOCH":"2021-09-24T14:55:14.390976","CENTER_NAME":"EARTH","TLE_LINE1":"1 45754U 20038AA  21267.62169434  .00001564  00000-0  12384-3 0  9998","PERIOD":"95.592","REV_AT_EPOCH":"7124","TLE_LINE2":"2 45754  53.0545 320.8242 0000876  97.4313 262.6775 15.06403391 71249","ECCENTRICITY":"0.00008760","PERIAPSIS":"546.597","SEMIMAJOR_AXIS":"6925.338","GP_ID":"185427226","BSTAR":"0.00012384000000","RCS_SIZE":"LARGE","SITE":"AFETR","TIME_SYSTEM":"UTC","MEAN_MOTION_DDOT":"0.0000000000000","INCLINATION":"53.0545","OBJECT_ID":"2020-038AA"},{"APOAPSIS":"547.664","ARG_OF_PERICENTER":"102.4961","CLASSIFICATION_TYPE":"U","OBJECT_TYPE":"PAYLOAD","MEAN_ANOMALY":"257.6103","FILE":"3126800","COUNTRY_CODE":"US","EPHEMERIS_TYPE":"0","NORAD_CAT_ID":"45755","OBJECT_NAME":"STARLINK-1478","MEAN_ELEMENT_THEORY":"SGP4","ELEMENT_SET_NO":"999","DECAY_DATE":null,"MEAN_MOTION":"15.06404453","RA_OF_ASC_NODE":"320.7412","REF_FRAME":"TEME","LAUNCH_DATE":"2020-06-13","MEAN_MOTION_DOT":"0.00002457","REV_AT_EPOCH":"7123","PERIOD":"95.592","TLE_LINE1":"1 45755U 20038AB  21267.64013066  .00002457  00000-0  18371-3 0  9994","EPOCH":"2021-09-24T15:21:47.289024","CENTER_NAME":"EARTH","OBJECT_ID":"2020-038AB","MEAN_MOTION_DDOT":"0.0000000000000","INCLINATION":"53.0552","RCS_SIZE":"LARGE","SITE":"AFETR","TIME_SYSTEM":"UTC","BSTAR":"0.00018371000000","GP_ID":"185427476","PERIAPSIS":"546.736","SEMIMAJOR_AXIS":"6925.335","ECCENTRICITY":"0.00006700","TLE_LINE2":"2 45755  53.0552 320.7412 0000670 102.4961 257.6103 15.06404453 71232"},{"OBJECT_NAME":"STARLINK-1484","MEAN_MOTION":"15.06402198","MEAN_ELEMENT_THEORY":"SGP4","DECAY_DATE":null,"ELEMENT_SET_NO":"999","REF_FRAME":"TEME","RA_OF_ASC_NODE":"320.7502","MEAN_MOTION_DOT":"0.00001416","LAUNCH_DATE":"2020-06-13","APOAPSIS":"547.732","CLASSIFICATION_TYPE":"U","OBJECT_TYPE":"PAYLOAD","ARG_OF_PERICENTER":"91.3804","MEAN_ANOMALY":"268.7272","FILE":"3126800","COUNTRY_CODE":"US","EPHEMERIS_TYPE":"0","NORAD_CAT_ID":"45756","OBJECT_ID":"2020-038AC","MEAN_MOTION_DDOT":"0.0000000000000","INCLINATION":"53.0554","BSTAR":"0.00011394000000","GP_ID":"185428225","RCS_SIZE":"LARGE","SITE":"AFETR","TIME_SYSTEM":"UTC","ECCENTRICITY":"0.00007590","PERIAPSIS":"546.681","SEMIMAJOR_AXIS":"6925.342","TLE_LINE2":"2 45756  53.0554 320.7502 0000759  91.3804 268.7272 15.06402198 71239","REV_AT_EPOCH":"7123","PERIOD":"95.592","TLE_LINE1":"1 45756U 20038AC  21267.63643828  .00001416  00000-0  11394-3 0  9991","CENTER_NAME":"EARTH","EPOCH":"2021-09-24T15:16:28.267392"}];
